CCSDS_OEM_VERS = 1.0
CREATION_DATE  = 2017-05-11T10:56:16
ORIGINATOR     = GMAT USER

META_START
OBJECT_NAME          = MOPSSat_alt_35785_km_RAAN_0_015
OBJECT_ID            = SatId
CENTER_NAME          = Earth
REF_FRAME            = EME2000
TIME_SYSTEM          = UTC
START_TIME           = 2017-01-01T00:00:00.000
USEABLE_START_TIME   = 2017-01-01T00:00:00.000
USEABLE_STOP_TIME    = 2017-01-02T00:00:00.000
STOP_TIME            = 2017-01-02T00:00:00.000
INTERPOLATION        = Lagrange
INTERPOLATION_DEGREE = 7 
META_STOP


                                                                                   

2017-01-01T20:28:20.000   2.592324349812076e+04  -3.325328831676900e+04  -4.579055357901470e-01   2.424898110895362e+00   1.890463835479868e+00  -1.351994355420575e-04
2017-01-01T20:28:30.000   2.594748558493152e+04  -3.323437483847864e+04  -4.592576299043169e-01   2.423518987547206e+00   1.892231616871685e+00  -1.352193728353184e-04
2017-01-01T20:28:40.000   2.597171387429467e+04  -3.321544368722296e+04  -4.606099230522991e-01   2.422138575328946e+00   1.893998392088023e+00  -1.352392397138349e-04
2017-01-01T20:28:50.000   2.599592835306764e+04  -3.319649487327124e+04  -4.619624145153288e-01   2.420756874989351e+00   1.895764160170368e+00  -1.352590361396628e-04
2017-01-01T20:29:00.000   2.602012900818297e+04  -3.317752840684849e+04  -4.633151035780719e-01   2.419373887273969e+00   1.897528920165690e+00  -1.352787620749418e-04
2017-01-01T20:29:10.000   2.604431582652533e+04  -3.315854429823264e+04  -4.646679895217191e-01   2.417989612932204e+00   1.899292671117457e+00  -1.352984174817987e-04
2017-01-01T20:29:20.000   2.606848879547725e+04  -3.313954255732625e+04  -4.660210716545155e-01   2.416604052686089e+00   1.901055412105455e+00  -1.353180023227826e-04
2017-01-01T20:29:30.000   2.609264790237319e+04  -3.312052319408461e+04  -4.673743492812336e-01   2.415217207261506e+00   1.902817142205957e+00  -1.353375165604297e-04
2017-01-01T20:29:40.000   2.611679313462326e+04  -3.310148621841925e+04  -4.687278217100718e-01   2.413829077381145e+00   1.904577860500754e+00  -1.353569601573613e-04
2017-01-01T20:29:50.000   2.614092447939851e+04  -3.308243164044213e+04  -4.700814882351535e-01   2.412439663782308e+00   1.906337566054205e+00  -1.353763330760358e-04
2017-01-01T20:30:00.000   2.616504192386521e+04  -3.306335947028494e+04  -4.714353481495114e-01   2.411048967203740e+00   1.908096257930319e+00  -1.353956352789320e-04
2017-01-01T20:30:10.000   2.618914545518397e+04  -3.304426971809831e+04  -4.727894007451016e-01   2.409656988385566e+00   1.909853935192694e+00  -1.354148667285499e-04
2017-01-01T20:30:20.000   2.621323506027983e+04  -3.302516239423752e+04  -4.741436452997568e-01   2.408263728082833e+00   1.911610596887750e+00  -1.354340273872212e-04
2017-01-01T20:30:30.000   2.623731072615276e+04  -3.300603750901315e+04  -4.754980810947481e-01   2.406869187047333e+00   1.913366242067373e+00  -1.354531172173635e-04
2017-01-01T20:30:40.000   2.626137243975285e+04  -3.298689507279085e+04  -4.768527074077387e-01   2.405473366034868e+00   1.915120869779801e+00  -1.354721361813777e-04
2017-01-01T20:30:50.000   2.628542018853224e+04  -3.296773509555223e+04  -4.782075235438657e-01   2.404076265773244e+00   1.916874479109901e+00  -1.354910842420999e-04
2017-01-01T20:31:00.000   2.630945395989174e+04  -3.294855758733492e+04  -4.795625288045813e-01   2.402677886994346e+00   1.918627069138779e+00  -1.355099613623475e-04
2017-01-01T20:31:10.000   2.633347374132369e+04  -3.292936255811920e+04  -4.809177224956964e-01   2.401278230425879e+00   1.920378638954228e+00  -1.355287675050392e-04
2017-01-01T20:31:20.000   2.635747952002697e+04  -3.291015001813239e+04  -4.822731039057613e-01   2.399877296813566e+00   1.922129187622633e+00  -1.355475026328717e-04
2017-01-01T20:31:30.000   2.638147128322501e+04  -3.289091997759801e+04  -4.836286723239027e-01   2.398475086902847e+00   1.923878714212177e+00  -1.355661667085900e-04
2017-01-01T20:31:40.000   2.640544901809246e+04  -3.287167244679345e+04  -4.849844270357124e-01   2.397071601443100e+00   1.925627217787478e+00  -1.355847596949234e-04
2017-01-01T20:31:50.000   2.642941271178439e+04  -3.285240743602873e+04  -4.863403673248299e-01   2.395666841186069e+00   1.927374697411733e+00  -1.356032815546266e-04
2017-01-01T20:32:00.000   2.645336235144898e+04  -3.283312495563454e+04  -4.876964924737128e-01   2.394260806885020e+00   1.929121152147633e+00  -1.356217322504717e-04
2017-01-01T20:32:10.000   2.647729792425612e+04  -3.281382501593931e+04  -4.890528017652589e-01   2.392853499293043e+00   1.930866581059452e+00  -1.356401117452756e-04
2017-01-01T20:32:20.000   2.650121941741173e+04  -3.279450762725937e+04  -4.904092944835560e-01   2.391444919162355e+00   1.932610983214095e+00  -1.356584200019009e-04
2017-01-01T20:32:30.000   2.652512681818486e+04  -3.277517279987498e+04  -4.917659699154912e-01   2.390035067242536e+00   1.934354357683068e+00  -1.356766569832856e-04
2017-01-01T20:32:40.000   2.654902011383551e+04  -3.275582054408953e+04  -4.931228273466256e-01   2.388623944284860e+00   1.936096703537214e+00  -1.356948226523854e-04
2017-01-01T20:32:50.000   2.657289929192806e+04  -3.273645086997291e+04  -4.944798660790892e-01   2.387211551023568e+00   1.937838019869580e+00  -1.357129169724203e-04
2017-01-01T20:33:00.000   2.659676433995118e+04  -3.271706378767213e+04  -4.958370854099006e-01   2.385797888198532e+00   1.939578305767682e+00  -1.357309399065770e-04
2017-01-01T20:33:10.000   2.662061524546158e+04  -3.269765930729409e+04  -4.971944846391586e-01   2.384382956546693e+00   1.941317560324009e+00  -1.357488914181220e-04
2017-01-01T20:33:20.000   2.664445199552635e+04  -3.267823743935915e+04  -4.985520630383074e-01   2.382966756835146e+00   1.943055782595337e+00  -1.357667714699686e-04
2017-01-01T20:33:30.000   2.666827457728079e+04  -3.265879819434769e+04  -4.999098198818717e-01   2.381549289828066e+00   1.944792971643420e+00  -1.357845800251098e-04
2017-01-01T20:33:40.000   2.669208297778426e+04  -3.263934158281696e+04  -5.012677544392670e-01   2.380130556295240e+00   1.946529126524474e+00  -1.358023170465056e-04
2017-01-01T20:33:50.000   2.671587718440202e+04  -3.261986761509240e+04  -5.026258659964629e-01   2.378710556989548e+00   1.948264246317022e+00  -1.358199824973831e-04
2017-01-01T20:34:00.000   2.673965718448988e+04  -3.260037630152203e+04  -5.039841538381097e-01   2.377289292665519e+00   1.949998330098898e+00  -1.358375763409866e-04
2017-01-01T20:34:10.000   2.676342296546696e+04  -3.258086765241788e+04  -5.053426172516597e-01   2.375866764075055e+00   1.951731376952551e+00  -1.358550985406358e-04
2017-01-01T20:34:20.000   2.678717451478673e+04  -3.256134167807766e+04  -5.067012555257814e-01   2.374442971969017e+00   1.953463385962936e+00  -1.358725490596950e-04
2017-01-01T20:34:30.000   2.681091181992443e+04  -3.254179838879664e+04  -5.080600679495878e-01   2.373017917098088e+00   1.955194356216599e+00  -1.358899278615722e-04
2017-01-01T20:34:40.000   2.683463486834878e+04  -3.252223779489108e+04  -5.094190538110123e-01   2.371591600214483e+00   1.956924286799607e+00  -1.359072349096972e-04
2017-01-01T20:34:50.000   2.685834364750777e+04  -3.250265990670816e+04  -5.107782123960579e-01   2.370164022072672e+00   1.958653176796513e+00  -1.359244701675097e-04
2017-01-01T20:35:00.000   2.688203814480185e+04  -3.248306473465018e+04  -5.121375429871848e-01   2.368735183431139e+00   1.960381025288410e+00  -1.359416335984424e-04
2017-01-01T20:35:10.000   2.690571834765543e+04  -3.246345228911458e+04  -5.134970448674460e-01   2.367305085048022e+00   1.962107831358132e+00  -1.359587251659712e-04
2017-01-01T20:35:20.000   2.692938424320629e+04  -3.244382258075406e+04  -5.148567173025570e-01   2.365873727700068e+00   1.963833594067616e+00  -1.359757448333988e-04
2017-01-01T20:35:30.000   2.695303581868237e+04  -3.242417562016166e+04  -5.162165595626199e-01   2.364441112159676e+00   1.965558312485372e+00  -1.359926925641182e-04
2017-01-01T20:35:40.000   2.697667306126142e+04  -3.240451141798777e+04  -5.175765709140479e-01   2.363007239203426e+00   1.967281985676248e+00  -1.360095683215145e-04
2017-01-01T20:35:50.000   2.700029595861496e+04  -3.238482998448786e+04  -5.189367506508471e-01   2.361572109579101e+00   1.969004612741104e+00  -1.360263720693464e-04
2017-01-01T20:36:00.000   2.702390449836565e+04  -3.236513132997342e+04  -5.202970980634147e-01   2.360135724038570e+00   1.970726192777232e+00  -1.360431037713661e-04
2017-01-01T20:36:10.000   2.704749866821047e+04  -3.234541546471004e+04  -5.216576124456074e-01   2.358698083330357e+00   1.972446724887346e+00  -1.360597633914049e-04
2017-01-01T20:36:20.000   2.707107845561323e+04  -3.232568239917039e+04  -5.230182930771442e-01   2.357259188218086e+00   1.974166208157157e+00  -1.360763508931612e-04
2017-01-01T20:36:30.000   2.709464384803339e+04  -3.230593214384709e+04  -5.243791392366636e-01   2.355819039466835e+00   1.975884641672059e+00  -1.360928662403564e-04
2017-01-01T20:36:40.000   2.711819483292540e+04  -3.228616470925181e+04  -5.257401502017349e-01   2.354377637843069e+00   1.977602024517079e+00  -1.361093093967375e-04
2017-01-01T20:36:50.000   2.714173139751403e+04  -3.226638010610747e+04  -5.271013252357494e-01   2.352934984128663e+00   1.979318355760497e+00  -1.361256803259126e-04
2017-01-01T20:37:00.000   2.716525352909768e+04  -3.224657834509020e+04  -5.284626636055674e-01   2.351491079102076e+00   1.981033634475963e+00  -1.361419789915706e-04
2017-01-01T20:37:10.000   2.718876121492865e+04  -3.222675943693069e+04  -5.298241645745700e-01   2.350045923545748e+00   1.982747859733762e+00  -1.361582053573936e-04
2017-01-01T20:37:20.000   2.721225444274375e+04  -3.220692339196701e+04  -5.311858274333832e-01   2.348599518213490e+00   1.984461030639515e+00  -1.361743593874382e-04
